{"type": "FeatureCollection", "features": [ {"type": "Feature", "properties": {"norad_id": 40115, "name": "WORLDVIEW-3 (WV-3)", "group": "resource", "lat": 30.009354224095578, "lon": 53.95052337399893, "alt_km": 613.495636331947, "timestamp": "2025-12-12T05:47:28.429058+00:00", "meta": {"OBJECT_NAME": "WORLDVIEW-3 (WV-3)", "OBJECT_ID": "2014-048A", "EPOCH": "2025-12-11T23:11:19.097664", "MEAN_MOTION": 14.85508979, "ECCENTRICITY": 0.00047176, "INCLINATION": 97.8613, "RA_OF_ASC_NODE": 58.256, "ARG_OF_PERICENTER": 187.1508, "MEAN_ANOMALY": 172.9641, "EPHEMERIS_TYPE": 0, "CLASSIFICATION_TYPE": "U", "NORAD_CAT_ID": 40115, "ELEMENT_SET_NO": 999, "REV_AT_EPOCH": 61412, "BSTAR": 0.00024451221, "MEAN_MOTION_DOT": 2.058e-05, "MEAN_MOTION_DDOT": 0}, "tle": {"line1": "1 40115U 14048A   25345.96619326  .00002058  00000+0  24451-3 0  9992", "line2": "2 40115  97.8613  58.2560 0004717 187.1508 172.9641 14.85508979614122"}}, "geometry": {"type": "Point", "coordinates": [53.95052337399893, 30.009354224095578]}}, {"type": "Feature", "properties": {"norad_id": 40118, "name": "GAOFEN-2", "group": "resource", "lat": -36.40251739735381, "lon": -140.5726367609266, "alt_km": 635.0520498131173, "timestamp": "2025-12-12T05:47:28.429069+00:00", "meta": {"OBJECT_NAME": "GAOFEN-2", "OBJECT_ID": "2014-049A", "EPOCH": "2025-12-11T23:57:01.355040", "MEAN_MOTION": 14.80607069, "ECCENTRICITY": 0.00085634, "INCLINATION": 98.0381, "RA_OF_ASC_NODE": 45.1644, "ARG_OF_PERICENTER": 115.0257, "MEAN_ANOMALY": 245.1845, "EPHEMERIS_TYPE": 0, "CLASSIFICATION_TYPE": "U", "NORAD_CAT_ID": 40118, "ELEMENT_SET_NO": 999, "REV_AT_EPOCH": 61153, "BSTAR": 0.00021227817, "MEAN_MOTION_DOT": 1.576e-05, "MEAN_MOTION_DDOT": 0}, "tle": {"line1": "1 40118U 14049A   25345.99793235  .00001576  00000+0  21228-3 0  9994", "line2": "2 40118  98.0381  45.1644 0008563 115.0257 245.1845 14.80607069611538"}}, "geometry": {"type": "Point", "coordinates": [-140.5726367609266, -36.40251739735381]}}, {"type": "Feature", "properties": {"norad_id": 40143, "name": "YAOGAN-21", "group": "resource", "lat": 75.10248401390716, "lon": -122.15730127106131, "alt_km": 484.23486977840184, "timestamp": "2025-12-12T05:47:28.429079+00:00", "meta": {"OBJECT_NAME": "YAOGAN-21", "OBJECT_ID": "2014-053A", "EPOCH": "2025-12-12T00:36:46.186848", "MEAN_MOTION": 15.23666761, "ECCENTRICITY": 0.00098521, "INCLINATION": 97.1759, "RA_OF_ASC_NODE": 29.3688, "ARG_OF_PERICENTER": 44.1984, "MEAN_ANOMALY": 316.0039, "EPHEMERIS_TYPE": 0, "CLASSIFICATION_TYPE": "U", "NORAD_CAT_ID": 40143, "ELEMENT_SET_NO": 999, "REV_AT_EPOCH": 62643, "BSTAR": 0.00038662304, "MEAN_MOTION_DOT": 9.22e-05, "MEAN_MOTION_DDOT": 0}, "tle": {"line1": "1 40143U 14053A   25346.02553457  .00009220  00000+0  38662-3 0  9996", "line2": "2 40143  97.1759  29.3688 0009852  44.1984 316.0039 15.23666761626438"}}, "geometry": {"type": "Point", "coordinates": [-122.15730127106131, 75.10248401390716]}}, {"type": "Feature", "properties": {"norad_id": 40275, "name": "YAOGAN-22", "group": "resource", "lat": -48.04729986554921, "lon": 141.84436228804486, "alt_km": 1206.36499127174, "timestamp": "2025-12-12T05:47:28.429090+00:00", "meta": {"OBJECT_NAME": "YAOGAN-22", "OBJECT_ID": "2014-063A", "EPOCH": "2025-12-11T22:44:23.530848", "MEAN_MOTION": 13.15522655, "ECCENTRICITY": 0.00059506, "INCLINATION": 100.742, "RA_OF_ASC_NODE": 129.3558, "ARG_OF_PERICENTER": 250.2271, "MEAN_ANOMALY": 109.8199, "EPHEMERIS_TYPE": 0, "CLASSIFICATION_TYPE": "U", "NORAD_CAT_ID": 40275, "ELEMENT_SET_NO": 999, "REV_AT_EPOCH": 53519, "BSTAR": 3.6989629e-05, "MEAN_MOTION_DOT": -3.3e-07, "MEAN_MOTION_DDOT": 0}, "tle": {"line1": "1 40275U 14063A   25345.94749457 -.00000033  00000+0  36990-4 0  9997", "line2": "2 40275 100.7420 129.3558 0005950 250.2271 109.8199 13.15522655535190"}}, "geometry": {"type": "Point", "coordinates": [141.84436228804486, -48.04729986554921]}}, {"type": "Feature", "properties": {"norad_id": 40298, "name": "ASNARO", "group": "resource", "lat": 21.38213172368976, "lon": -114.89792411778127, "alt_km": 504.2232576441902, "timestamp": "2025-12-12T05:47:28.429101+00:00", "meta": {"OBJECT_NAME": "ASNARO", "OBJECT_ID": "2014-070A", "EPOCH": "2025-12-12T00:21:20.150784", "MEAN_MOTION": 15.19474657, "ECCENTRICITY": 0.000555, "INCLINATION": 97.3651, "RA_OF_ASC_NODE": 61.9782, "ARG_OF_PERICENTER": 123.7493, "MEAN_ANOMALY": 236.4271, "EPHEMERIS_TYPE": 0, "CLASSIFICATION_TYPE": "U", "NORAD_CAT_ID": 40298, "ELEMENT_SET_NO": 999, "REV_AT_EPOCH": 61558, "BSTAR": 0.0008531301, "MEAN_MOTION_DOT": 0.00018068, "MEAN_MOTION_DDOT": 0}, "tle": {"line1": "1 40298U 14070A   25346.01481656  .00018068  00000+0  85313-3 0  9991", "line2": "2 40298  97.3651  61.9782 0005550 123.7493 236.4271 15.19474657615582"}}, "geometry": {"type": "Point", "coordinates": [-114.89792411778127, 21.38213172368976]}}, {"type": "Feature", "properties": {"norad_id": 40310, "name": "YAOGAN-24", "group": "resource", "lat": -28.231717417491154, "lon": -67.06624488898872, "alt_km": 643.5596716623359, "timestamp": "2025-12-12T05:47:28.429111+00:00", "meta": {"OBJECT_NAME": "YAOGAN-24", "OBJECT_ID": "2014-072A", "EPOCH": "2025-12-11T23:58:14.428704", "MEAN_MOTION": 14.76174862, "ECCENTRICITY": 0.00146995, "INCLINATION": 98.1222, "RA_OF_ASC_NODE": 117.0876, "ARG_OF_PERICENTER": 140.2022, "MEAN_ANOMALY": 220.0268, "EPHEMERIS_TYPE": 0, "CLASSIFICATION_TYPE": "U", "NORAD_CAT_ID": 40310, "ELEMENT_SET_NO": 999, "REV_AT_EPOCH": 59610, "BSTAR": 0.0002632367, "MEAN_MOTION_DOT": 1.77e-05, "MEAN_MOTION_DDOT": 0}, "tle": {"line1": "1 40310U 14072A   25345.99877811  .00001770  00000+0  26324-3 0  9995", "line2": "2 40310  98.1222 117.0876 0014699 140.2022 220.0268 14.76174862596101"}}, "geometry": {"type": "Point", "coordinates": [-67.06624488898872, -28.231717417491154]}}, {"type": "Feature", "properties": {"norad_id": 40336, "name": "CBERS 4", "group": "resource", "lat": 21.278964635799063, "lon": 41.003256971778335, "alt_km": 773.1923047631508, "timestamp": "2025-12-12T05:47:28.429121+00:00", "meta": {"OBJECT_NAME": "CBERS 4", "OBJECT_ID": "2014-079A", "EPOCH": "2025-12-12T00:40:22.002816", "MEAN_MOTION": 14.35516745, "ECCENTRICITY": 0.00016341, "INCLINATION": 98.3306, "RA_OF_ASC_NODE": 44.0687, "ARG_OF_PERICENTER": 113.006, "MEAN_ANOMALY": 247.1298, "EPHEMERIS_TYPE": 0, "CLASSIFICATION_TYPE": "U", "NORAD_CAT_ID": 40336, "ELEMENT_SET_NO": 999, "REV_AT_EPOCH": 57710, "BSTAR": 5.9399516e-05, "MEAN_MOTION_DOT": 1.29e-06, "MEAN_MOTION_DDOT": 0}, "tle": {"line1": "1 40336U 14079A   25346.02803244  .00000129  00000+0  59400-4 0  9993", "line2": "2 40336  98.3306  44.0687 0001634 113.0060 247.1298 14.35516745577105"}}, "geometry": {"type": "Point", "coordinates": [41.003256971778335, 21.278964635799063]}}, {"type": "Feature", "properties": {"norad_id": 40362, "name": "YAOGAN-26", "group": "resource", "lat": 29.80121170479943, "lon": 171.0064168447244, "alt_km": 448.8793946339956, "timestamp": "2025-12-12T05:47:28.429131+00:00", "meta": {"OBJECT_NAME": "YAOGAN-26", "OBJECT_ID": "2014-088A", "EPOCH": "2025-12-12T00:27:44.009568", "MEAN_MOTION": 15.3927095, "ECCENTRICITY": 0.00063215, "INCLINATION": 97.0644, "RA_OF_ASC_NODE": 346.7193, "ARG_OF_PERICENTER": 32.283, "MEAN_ANOMALY": 327.8802, "EPHEMERIS_TYPE": 0, "CLASSIFICATION_TYPE": "U", "NORAD_CAT_ID": 40362, "ELEMENT_SET_NO": 999, "REV_AT_EPOCH": 60883, "BSTAR": 0.00095320366, "MEAN_MOTION_DOT": 0.0003721, "MEAN_MOTION_DDOT": 0}, "tle": {"line1": "1 40362U 14088A   25346.01925937  .00037210  00000+0  95320-3 0  9996", "line2": "2 40362  97.0644 346.7193 0006321  32.2830 327.8802 15.39270950608836"}}, "geometry": {"type": "Point", "coordinates": [171.0064168447244, 29.80121170479943]}}, {"type": "Feature", "properties": {"norad_id": 40376, "name": "SMAP", "group": "resource", "lat": 5.216540391752528, "lon": 171.72005947380458, "alt_km": 684.6172506223174, "timestamp": "2025-12-12T05:47:28.429142+00:00", "meta": {"OBJECT_NAME": "SMAP", "OBJECT_ID": "2015-003A", "EPOCH": "2025-12-12T00:04:21.949248", "MEAN_MOTION": 14.63343691, "ECCENTRICITY": 0.00011987, "INCLINATION": 98.1292, "RA_OF_ASC_NODE": 350.7375, "ARG_OF_PERICENTER": 89.776, "MEAN_ANOMALY": 270.3579, "EPHEMERIS_TYPE": 0, "CLASSIFICATION_TYPE": "U", "NORAD_CAT_ID": 40376, "ELEMENT_SET_NO": 999, "REV_AT_EPOCH": 58024, "BSTAR": 0.00018657618, "MEAN_MOTION_DOT": 9.17e-06, "MEAN_MOTION_DDOT": 0}, "tle": {"line1": "1 40376U 15003A   25346.00303182  .00000917  00000+0  18658-3 0  9993", "line2": "2 40376  98.1292 350.7375 0001198  89.7760 270.3579 14.63343691580241"}}, "geometry": {"type": "Point", "coordinates": [171.72005947380458, 5.216540391752528]}}, {"type": "Feature", "properties": {"norad_id": 40536, "name": "KOMPSAT-3A", "group": "resource", "lat": 78.82348701589589, "lon": -82.51003438158499, "alt_km": 424.9479642565839, "timestamp": "2025-12-12T05:47:28.429152+00:00", "meta": {"OBJECT_NAME": "KOMPSAT-3A", "OBJECT_ID": "2015-014A", "EPOCH": "2025-12-11T23:12:57.555648", "MEAN_MOTION": 15.43899253, "ECCENTRICITY": 0.00048336, "INCLINATION": 97.6789, "RA_OF_ASC_NODE": 320.2713, "ARG_OF_PERICENTER": 128.7303, "MEAN_ANOMALY": 231.4377, "EPHEMERIS_TYPE": 0, "CLASSIFICATION_TYPE": "U", "NORAD_CAT_ID": 40536, "ELEMENT_SET_NO": 999, "REV_AT_EPOCH": 59283, "BSTAR": 0.00057798503, "MEAN_MOTION_DOT": 0.00026225, "MEAN_MOTION_DDOT": 0}, "tle": {"line1": "1 40536U 15014A   25345.96733282  .00026225  00000+0  57799-3 0  9994", "line2": "2 40536  97.6789 320.2713 0004833 128.7303 231.4377 15.43899253592839"}}, "geometry": {"type": "Point", "coordinates": [-82.51003438158499, 78.82348701589589]}}]}